$$SOE
2460154.500000000, A.D. 2023-Jul-29 00:00:00.0000, 1.645031250593588E+08, 4.037987189679250E+08, 9.305145204353601E+06,
2460161.500000000, A.D. 2023-Aug-05 00:00:00.0000, 1.550635256526027E+08, 4.084917560399591E+08, 9.297022154689878E+06,
2460168.500000000, A.D. 2023-Aug-12 00:00:00.0000, 1.455338674919535E+08, 4.129472035671048E+08, 9.283483992361367E+06,
2460175.500000000, A.D. 2023-Aug-19 00:00:00.0000, 1.359202118335763E+08, 4.171639607474799E+08, 9.264572612215281E+06,
2460182.500000000, A.D. 2023-Aug-26 00:00:00.0000, 1.262285942056406E+08, 4.211410785961784E+08, 9.240332482206643E+06,
2460189.500000000, A.D. 2023-Sep-02 00:00:00.0000, 1.164650210365628E+08, 4.248777568273969E+08, 9.210810551259309E+06,
2460196.500000000, A.D. 2023-Sep-09 00:00:00.0000, 1.066354664835440E+08, 4.283733406009860E+08, 9.176056147331208E+06,
2460203.500000000, A.D. 2023-Sep-16 00:00:00.0000, 9.674586962469926E+07, 4.316273170840541E+08, 9.136120845693290E+06,
2460210.500000000, A.D. 2023-Sep-23 00:00:00.0000, 8.680213242582925E+07, 4.346393121231910E+08, 9.091058292878151E+06,
2460217.500000000, A.D. 2023-Sep-30 00:00:00.0000, 7.681011813766633E+07, 4.374090882270207E+08, 9.040924114875287E+06,
2460224.500000000, A.D. 2023-Oct-07 00:00:00.0000, 6.677564776591711E+07, 4.399365433222179E+08, 8.985776081118941E+06,
2460231.500000000, A.D. 2023-Oct-14 00:00:00.0000, 5.670449564705065E+07, 4.422217069737397E+08, 8.925674158510923E+06,
2460238.500000000, A.D. 2023-Oct-21 00:00:00.0000, 4.660238735191955E+07, 4.442647356806480E+08, 8.860680290715724E+06,
2460245.500000000, A.D. 2023-Oct-28 00:00:00.0000, 3.647499848981730E+07, 4.460659095143207E+08, 8.790858218042314E+06,
2460252.500000000, A.D. 2023-Nov-04 00:00:00.0000, 2.632795315841636E+07, 4.476256293306630E+08, 8.716273389683634E+06,
2460259.500000000, A.D. 2023-Nov-11 00:00:00.0000, 1.616682221052555E+07, 4.489444139580686E+08, 8.636992903290600E+06,
2460266.500000000, A.D. 2023-Nov-18 00:00:00.0000, 5.997121549555557E+06, 4.500228972996393E+08, 8.553085446889073E+06,
2460273.500000000, A.D. 2023-Nov-25 00:00:00.0000, -4.175689481131825E+06, 4.508618253766817E+08, 8.464621238751888E+06,
2460280.500000000, A.D. 2023-Dec-02 00:00:00.0000, -1.434620959339616E+07, 4.514620533079115E+08, 8.371671962096184E+06,
2460287.500000000, A.D. 2023-Dec-09 00:00:00.0000, -2.450909686131537E+07, 4.518245421708356E+08, 8.274310682839334E+06,
2460294.500000000, A.D. 2023-Dec-16 00:00:00.0000, -3.465906955676286E+07, 4.519503557618311E+08, 8.172611725071937E+06,
2460301.500000000, A.D. 2023-Dec-23 00:00:00.0000, -4.479090616950427E+07, 4.518406579451497E+08, 8.066650528309882E+06,
2460308.500000000, A.D. 2023-Dec-30 00:00:00.0000, -5.489944595615561E+07, 4.514967116424307E+08, 7.956503694858372E+06,
2460315.500000000, A.D. 2024-Jan-06 00:00:00.0000, -6.497959179386220E+07, 4.509198771012052E+08, 7.842249196534693E+06,
2460322.500000000, A.D. 2024-Jan-13 00:00:00.0000, -7.502631217251368E+07, 4.501116076327056E+08, 7.723966302004278E+06,
2460329.500000000, A.D. 2024-Jan-20 00:00:00.0000, -8.503464110984863E+07, 4.490734459060659E+08, 7.601735364394039E+06,
2460336.500000000, A.D. 2024-Jan-27 00:00:00.0000, -9.499967802310485E+07, 4.478070214542137E+08, 7.475637708142310E+06,
2460343.500000000, A.D. 2024-Feb-03 00:00:00.0000, -1.049165879901580E+08, 4.463140484436243E+08, 7.345755576592445E+06,
2460350.500000000, A.D. 2024-Feb-10 00:00:00.0000, -1.147806021276835E+08, 4.445963234176077E+08, 7.212172090931833E+06,
2460357.500000000, A.D. 2024-Feb-17 00:00:00.0000, -1.245870179521688E+08, 4.426557230220274E+08, 7.074971208240598E+06,
2460364.500000000, A.D. 2024-Feb-24 00:00:00.0000, -1.343311996919633E+08, 4.404942017288955E+08, 6.934237676399708E+06,
2460371.500000000, A.D. 2024-Mar-02 00:00:00.0000, -1.440085785249204E+08, 4.381137895255076E+08, 6.790056980367929E+06,
2460378.500000000, A.D. 2024-Mar-09 00:00:00.0000, -1.536146526066622E+08, 4.355165895059899E+08, 6.642515261839986E+06,
2460385.500000000, A.D. 2024-Mar-16 00:00:00.0000, -1.631449864981469E+08, 4.327047755619818E+08, 6.491699192065954E+06,
2460392.500000000, A.D. 2024-Mar-23 00:00:00.0000, -1.725952101004835E+08, 4.296805912814041E+08, 6.337695897868663E+06,
2460399.500000000, A.D. 2024-Mar-30 00:00:00.0000, -1.819610193418406E+08, 4.264463500294158E+08, 6.180593144041091E+06,
2460406.500000000, A.D. 2024-Apr-06 00:00:00.0000, -1.912381783620919E+08, 4.230044328425294E+08, 6.020479473341137E+06,
2460413.500000000, A.D. 2024-Apr-13 00:00:00.0000, -2.004225196477174E+08, 4.193572849687174E+08, 5.857444046904624E+06,
2460420.500000000, A.D. 2024-Apr-20 00:00:00.0000, -2.095099430745156E+08, 4.155074137304612E+08, 5.691576491106689E+06,
2460427.500000000, A.D. 2024-Apr-27 00:00:00.0000, -2.184964153781657E+08, 4.114573871502001E+08, 5.522966843985230E+06,
2460434.500000000, A.D. 2024-May-04 00:00:00.0000, -2.273779699671008E+08, 4.072098326337014E+08, 5.351705535689473E+06,
2460441.500000000, A.D. 2024-May-11 00:00:00.0000, -2.361507068422381E+08, 4.027674356082648E+08, 5.177883372861475E+06,
2460448.500000000, A.D. 2024-May-18 00:00:00.0000, -2.448107925445943E+08, 3.981329381364381E+08, 5.001591521309048E+06,
2460455.500000000, A.D. 2024-May-25 00:00:00.0000, -2.533544601090030E+08, 3.933091374973613E+08, 4.822921484258413E+06,
2460462.500000000, A.D. 2024-Jun-01 00:00:00.0000, -2.617780089669097E+08, 3.882988846775756E+08, 4.641965066177249E+06,
2460469.500000000, A.D. 2024-Jun-08 00:00:00.0000, -2.700778045546052E+08, 3.831050827475573E+08, 4.458814297895938E+06,
2460476.500000000, A.D. 2024-Jun-15 00:00:00.0000, -2.782502772301623E+08, 3.777306856682572E+08, 4.273561331141323E+06,
2460483.500000000, A.D. 2024-Jun-22 00:00:00.0000, -2.862919215074322E+08, 3.721786987026280E+08, 4.086298490865439E+06,
2460490.500000000, A.D. 2024-Jun-29 00:00:00.0000, -2.941992977308455E+08, 3.664521786122728E+08, 3.897118531195104E+06,
2460497.500000000, A.D. 2024-Jul-06 00:00:00.0000, -3.019690335451076E+08, 3.605542311666446E+08, 3.706114650651500E+06,
2460504.500000000, A.D. 2024-Jul-13 00:00:00.0000, -3.095978232107987E+08, 3.544880087844831E+08, 3.513380318971992E+06,
2460511.500000000, A.D. 2024-Jul-20 00:00:00.0000, -3.170824267543032E+08, 3.482567094538023E+08, 3.319009191588521E+06,
2460518.500000000, A.D. 2024-Jul-27 00:00:00.0000, -3.244196696101839E+08, 3.418635759692414E+08, 3.123095093489125E+06,
2460525.500000000, A.D. 2024-Aug-03 00:00:00.0000, -3.316064424855032E+08, 3.353118951096498E+08, 2.925732016775519E+06,
2460532.500000000, A.D. 2024-Aug-10 00:00:00.0000, -3.386397012835419E+08, 3.286049967503195E+08, 2.727014116198123E+06,
2460539.500000000, A.D. 2024-Aug-17 00:00:00.0000, -3.455164670424927E+08, 3.217462529316529E+08, 2.527035699812889E+06,
2460546.500000000, A.D. 2024-Aug-24 00:00:00.0000, -3.522338258632395E+08, 3.147390768623141E+08, 2.325891210020289E+06,
2460553.500000000, A.D. 2024-Aug-31 00:00:00.0000, -3.587889287117238E+08, 3.075869217951339E+08, 2.123675179003164E+06,
2460560.500000000, A.D. 2024-Sep-07 00:00:00.0000, -3.651789907311252E+08, 3.002932799011133E+08, 1.920482135052994E+06,
2460567.500000000, A.D. 2024-Sep-14 00:00:00.0000, -3.714012899795566E+08, 2.928616821357210E+08, 1.716406533079326E+06,
2460574.500000000, A.D. 2024-Sep-21 00:00:00.0000, -3.774531676240838E+08, 2.852956995086842E+08, 1.511542928786412E+06,
2460581.500000000, A.D. 2024-Sep-28 00:00:00.0000, -3.833320300802279E+08, 2.775989425294603E+08, 1.305986177135706E+06,
2460588.500000000, A.D. 2024-Oct-05 00:00:00.0000, -3.890353494263299E+08, 2.697750588283858E+08, 1.099831318609580E+06,
2460595.500000000, A.D. 2024-Oct-12 00:00:00.0000, -3.945606624538035E+08, 2.618277319300301E+08, 8.931734299285114E+05,
2460602.500000000, A.D. 2024-Oct-19 00:00:00.0000, -3.999055701069930E+08, 2.537606809064233E+08, 6.861075774822384E+05,
2460609.500000000, A.D. 2024-Oct-26 00:00:00.0000, -4.050677373466521E+08, 2.455776601083982E+08, 4.787288108005226E+05,
2460616.500000000, A.D. 2024-Nov-02 00:00:00.0000, -4.100448931802757E+08, 2.372824588256043E+08, 2.711321603207290E+05,
2460623.500000000, A.D. 2024-Nov-09 00:00:00.0000, -4.148348307632655E+08, 2.288789008944553E+08, 6.341263230757415E+04,
2460630.500000000, A.D. 2024-Nov-16 00:00:00.0000, -4.194354075457426E+08, 2.203708442528461E+08, -1.443348014029711E+05,
2460637.500000000, A.D. 2024-Nov-23 00:00:00.0000, -4.238445454188175E+08, 2.117621803903769E+08, -3.520152271837592E+05,
2460644.500000000, A.D. 2024-Nov-30 00:00:00.0000, -4.280602306526726E+08, 2.030568336500413E+08, -5.595338494540602E+05,
2460651.500000000, A.D. 2024-Dec-07 00:00:00.0000, -4.320805132075297E+08, 1.942587608004262E+08, -7.667960905833393E+05,
2460658.500000000, A.D. 2024-Dec-14 00:00:00.0000, -4.359035061068874E+08, 1.853719521004937E+08, -9.737075675890148E+05,
2460665.500000000, A.D. 2024-Dec-21 00:00:00.0000, -4.395273871935277E+08, 1.764004326146457E+08, -1.180173834362850E+06,
2460672.500000000, A.D. 2024-Dec-28 00:00:00.0000, -4.429504012973464E+08, 1.673482608104615E+08, -1.386100312791534E+06,
2460679.500000000, A.D. 2025-Jan-04 00:00:00.0000, -4.461708602165308E+08, 1.582195268139168E+08, -1.591392456444040E+06,
2460686.500000000, A.D. 2025-Jan-11 00:00:00.0000, -4.491871423330498E+08, 1.490183519786379E+08, -1.795955843831010E+06,
2460693.500000000, A.D. 2025-Jan-18 00:00:00.0000, -4.519976927814282E+08, 1.397488888481915E+08, -1.999696192142971E+06,
2460700.500000000, A.D. 2025-Jan-25 00:00:00.0000, -4.546010239288731E+08, 1.304153210357429E+08, -2.202519352453992E+06,
2460707.500000000, A.D. 2025-Feb-01 00:00:00.0000, -4.569957159779290E+08, 1.210218629895540E+08, -2.404331306008153E+06,
2460714.500000000, A.D. 2025-Feb-08 00:00:00.0000, -4.591804176338558E+08, 1.115727596622587E+08, -2.605038165129878E+06,
2460721.500000000, A.D. 2025-Feb-15 00:00:00.0000, -4.611538468086894E+08, 1.020722860621962E+08, -2.804546182890445E+06,
$$EOE